{
  "type": "FeatureCollection",
  "features": [
    {
      "type": "Feature",
      "id": "f-4z3x1s2",
      "properties": {
        "layer": "Trail Features",
        "name": "Trailhead",
        "elevation_m": 1240,
        "notes": "Tempat letak kereta",
        "label": "Trailhead",
        "symbol": "campground"
      },
      "geometry": {
        "type": "Point",
        "coordinates": [
          -122.27649919181039,
          42.962439832415754
        ]
      }
    },
    {
      "type": "Feature",
      "id": "f-jad4fa7",
      "properties": {
        "layer": "Trail Features",
        "activity": "Hiking",
        "distance_km": 0.086,
        "label": "Hiking Track",
        "symbol": "default"
      },
      "geometry": {
        "type": "LineString",
        "coordinates": [
          [
            -122.27649919181039,
            42.962439832415754
          ],
          [
            -122.27646808802344,
            42.96247062916495
          ],
          [
            -122.27640527243514,
            42.96247397648607
          ],
          [
            -122.27635983732436,
            42.96248659427718
          ],
          [
            -122.27632191293868,
            42.96248756922947
          ],
          [
            -122.2762598318484,
            42.96251173427221
          ],
          [
            -122.27622710721565,
            42.96250397737006
          ],
          [
            -122.27616918889285,
            42.9625108155042
          ],
          [
            -122.27611665869188,
            42.962497423291225
          ],
          [
            -122.27605120295149,
            42.96247060146142
          ],
          [
            -122.27600983699456,
            42.96246697933384
          ],
          [
            -122.27595397851844,
            42.962450320793195
          ],
          [
            -122.27593148366428,
            42.96244213202769
          ],
          [
            -122.2758645078067,
            42.9624201435505
          ],
          [
            -122.27583735826252,
            42.9623965746426
          ],
          [
            -122.27579845501153,
            42.96237023021989
          ],
          [
            -122.27573000426376,
            42.962361328266546
          ],
          [
            -122.27568227067017,
            42.962362299970586
          ],
          [
            -122.27564466065817,
            42.96234092016823
          ],
          [
            -122.27559392476175,
            42.96232636259124
          ],
          [
            -122.27554887188424,
            42.96232507362038
          ]
        ]
      }
    }
  ]
}